[
    {
        "Altitude(m)": 702690.4814337392,
        "Argument of Periapsis(deg)": 0.0011390121186627068,
        "Eccentricity": 0.0,
        "Inclination(deg)": 45.0,
        "Latitude(deg)": 10.693830728608848,
        "Longitude(deg)": 54.12442872075016,
        "Mean Anomaly(deg)": -195.21027833525193,
        "RAAN(deg)": 344.9989248058542,
        "Satellite Name": "Constellation 1 1528",
        "Satellite Number": 1528,
        "Semi-Major Axis(m)": 7083131.272910544,
        "Time(s)": 19
    },
    {
        "Altitude(m)": 702691.0001833388,
        "Argument of Periapsis(deg)": 0.0011989601249081123,
        "Eccentricity": 0.0,
        "Inclination(deg)": 45.0,
        "Latitude(deg)": 10.651382688329852,
        "Longitude(deg)": 54.16470239961812,
        "Mean Anomaly(deg)": -195.14957719500197,
        "RAAN(deg)": 344.9988682166886,
        "Satellite Name": "Constellation 1 1528",
        "Satellite Number": 1528,
        "Semi-Major Axis(m)": 7083131.272910544,
        "Time(s)": 20
    },
    {
        "Altitude(m)": 702691.5383287219,
        "Argument of Periapsis(deg)": 0.001258908131153518,
        "Eccentricity": 0.0,
        "Inclination(deg)": 45.0,
        "Latitude(deg)": 10.608928291846844,
        "Longitude(deg)": 54.20496375731002,
        "Mean Anomaly(deg)": -195.0888760547521,
        "RAAN(deg)": 344.9988116275231,
        "Satellite Name": "Constellation 1 1528",
        "Satellite Number": 1528,
        "Semi-Major Axis(m)": 7083131.272910544,
        "Time(s)": 21
    },
    {
        "Altitude(m)": 702692.0958858229,
        "Argument of Periapsis(deg)": 0.0013188561373989236,
        "Eccentricity": 0.0,
        "Inclination(deg)": 45.0,
        "Latitude(deg)": 10.56646756701324,
        "Longitude(deg)": 54.245212677293395,
        "Mean Anomaly(deg)": -195.02817491450216,
        "RAAN(deg)": 344.9987550383575,
        "Satellite Name": "Constellation 1 1528",
        "Satellite Number": 1528,
        "Semi-Major Axis(m)": 7083131.272910544,
        "Time(s)": 22
    },
    {
        "Altitude(m)": 702692.672870509,
        "Argument of Periapsis(deg)": 0.0013788041436443293,
        "Eccentricity": 0.0,
        "Inclination(deg)": 45.0,
        "Latitude(deg)": 10.52400054165946,
        "Longitude(deg)": 54.28544954730227,
        "Mean Anomaly(deg)": -194.9674737742523,
        "RAAN(deg)": 344.9986984491919,
        "Satellite Name": "Constellation 1 1528",
        "Satellite Number": 1528,
        "Semi-Major Axis(m)": 7083131.272910544,
        "Time(s)": 23
    },
    {
        "Altitude(m)": 702693.269298559,
        "Argument of Periapsis(deg)": 0.001438752149889735,
        "Eccentricity": 0.0,
        "Inclination(deg)": 45.0,
        "Latitude(deg)": 10.481527243591621,
        "Longitude(deg)": 54.32567425075472,
        "Mean Anomaly(deg)": -194.90677263400244,
        "RAAN(deg)": 344.99864186002634,
        "Satellite Name": "Constellation 1 1528",
        "Satellite Number": 1528,
        "Semi-Major Axis(m)": 7083131.272910544,
        "Time(s)": 24
    },
    {
        "Altitude(m)": 702693.8851856606,
        "Argument of Periapsis(deg)": 0.0014987001561351404,
        "Eccentricity": 0.0,
        "Inclination(deg)": 45.0,
        "Latitude(deg)": 10.439047700592521,
        "Longitude(deg)": 54.36588683914175,
        "Mean Anomaly(deg)": -194.84607149375245,
        "RAAN(deg)": 344.99858527086076,
        "Satellite Name": "Constellation 1 1528",
        "Satellite Number": 1528,
        "Semi-Major Axis(m)": 7083131.272910544,
        "Time(s)": 25
    },
    {
        "Altitude(m)": 702694.5205474286,
        "Argument of Periapsis(deg)": 0.001558648162380546,
        "Eccentricity": 0.0,
        "Inclination(deg)": 45.0,
        "Latitude(deg)": 10.396561940421876,
        "Longitude(deg)": 54.40608736392919,
        "Mean Anomaly(deg)": -194.78537035350263,
        "RAAN(deg)": 344.99852868169523,
        "Satellite Name": "Constellation 1 1528",
        "Satellite Number": 1528,
        "Semi-Major Axis(m)": 7083131.272910544,
        "Time(s)": 26
    },
    {
        "Altitude(m)": 702695.1753993912,
        "Argument of Periapsis(deg)": 0.0016185961686259519,
        "Eccentricity": 0.0,
        "Inclination(deg)": 45.0,
        "Latitude(deg)": 10.354069990815733,
        "Longitude(deg)": 54.44627587655911,
        "Mean Anomaly(deg)": -194.72466921325278,
        "RAAN(deg)": 344.99847209252965,
        "Satellite Name": "Constellation 1 1528",
        "Satellite Number": 1528,
        "Semi-Major Axis(m)": 7083131.272910544,
        "Time(s)": 27
    },
    {
        "Altitude(m)": 702695.8497569968,
        "Argument of Periapsis(deg)": 0.0016785441748713573,
        "Eccentricity": 0.0,
        "Inclination(deg)": 45.0,
        "Latitude(deg)": 10.311571879487083,
        "Longitude(deg)": 54.486452428448956,
        "Mean Anomaly(deg)": -194.66396807300282,
        "RAAN(deg)": 344.9984155033641,
        "Satellite Name": "Constellation 1 1528",
        "Satellite Number": 1528,
        "Semi-Major Axis(m)": 7083131.272910544,
        "Time(s)": 28
    },
    {
        "Altitude(m)": 702696.5436356016,
        "Argument of Periapsis(deg)": 0.001738492181116763,
        "Eccentricity": 0.0,
        "Inclination(deg)": 45.0,
        "Latitude(deg)": 10.26906763412589,
        "Longitude(deg)": 54.526617070992,
        "Mean Anomaly(deg)": -194.6032669327529,
        "RAAN(deg)": 344.99835891419855,
        "Satellite Name": "Constellation 1 1528",
        "Satellite Number": 1528,
        "Semi-Major Axis(m)": 7083131.272910544,
        "Time(s)": 29
    },
    {
        "Altitude(m)": 702697.257050489,
        "Argument of Periapsis(deg)": 0.0017984401873621684,
        "Eccentricity": 0.0,
        "Inclination(deg)": 45.0,
        "Latitude(deg)": 10.22655728239905,
        "Longitude(deg)": 54.56676968746001,
        "Mean Anomaly(deg)": -194.54256579250307,
        "RAAN(deg)": 344.9983023250329,
        "Satellite Name": "Constellation 1 1528",
        "Satellite Number": 1528,
        "Semi-Major Axis(m)": 7083131.272910544,
        "Time(s)": 30
    },
    {
        "Altitude(m)": 702697.9900168515,
        "Argument of Periapsis(deg)": 0.0018583881936075745,
        "Eccentricity": 0.0,
        "Inclination(deg)": 45.0,
        "Latitude(deg)": 10.184040851950819,
        "Longitude(deg)": 54.60691066539248,
        "Mean Anomaly(deg)": -194.48186465225314,
        "RAAN(deg)": 344.99824573586733,
        "Satellite Name": "Constellation 1 1528",
        "Satellite Number": 1528,
        "Semi-Major Axis(m)": 7083131.272910544,
        "Time(s)": 31
    },
    {
        "Altitude(m)": 702698.7425497967,
        "Argument of Periapsis(deg)": 0.0019183361998529795,
        "Eccentricity": 0.0,
        "Inclination(deg)": 45.0,
        "Latitude(deg)": 10.141518370402471,
        "Longitude(deg)": 54.647039888013104,
        "Mean Anomaly(deg)": -194.42116351200318,
        "RAAN(deg)": 344.9981891467018,
        "Satellite Name": "Constellation 1 1528",
        "Satellite Number": 1528,
        "Semi-Major Axis(m)": 7083131.272910544,
        "Time(s)": 32
    },
    {
        "Altitude(m)": 702699.5146643615,
        "Argument of Periapsis(deg)": 0.0019782842060983856,
        "Eccentricity": 0.0,
        "Inclination(deg)": 45.0,
        "Latitude(deg)": 10.098989865352626,
        "Longitude(deg)": 54.68715740661897,
        "Mean Anomaly(deg)": -194.36046237175333,
        "RAAN(deg)": 344.9981325575362,
        "Satellite Name": "Constellation 1 1528",
        "Satellite Number": 1528,
        "Semi-Major Axis(m)": 7083131.272910544,
        "Time(s)": 33
    },
    {
        "Altitude(m)": 702700.306375479,
        "Argument of Periapsis(deg)": 0.0020382322123437906,
        "Eccentricity": 0.0,
        "Inclination(deg)": 45.0,
        "Latitude(deg)": 10.056455364377289,
        "Longitude(deg)": 54.727263272483256,
        "Mean Anomaly(deg)": -194.29976123150345,
        "RAAN(deg)": 344.9980759683707,
        "Satellite Name": "Constellation 1 1528",
        "Satellite Number": 1528,
        "Semi-Major Axis(m)": 7083131.272910544,
        "Time(s)": 34
    },
    {
        "Altitude(m)": 702701.1176980162,
        "Argument of Periapsis(deg)": 0.002098180218589197,
        "Eccentricity": 0.0,
        "Inclination(deg)": 45.0,
        "Latitude(deg)": 10.013914895029945,
        "Longitude(deg)": 54.767357536855435,
        "Mean Anomaly(deg)": -194.2390600912535,
        "RAAN(deg)": 344.99801937920506,
        "Satellite Name": "Constellation 1 1528",
        "Satellite Number": 1528,
        "Semi-Major Axis(m)": 7083131.272910544,
        "Time(s)": 35
    },
    {
        "Altitude(m)": 702701.9486467454,
        "Argument of Periapsis(deg)": 0.002158128224834602,
        "Eccentricity": 0.0,
        "Inclination(deg)": 45.0,
        "Latitude(deg)": 9.971368484841951,
        "Longitude(deg)": 54.80744025096114,
        "Mean Anomaly(deg)": -194.1783589510036,
        "RAAN(deg)": 344.9979627900395,
        "Satellite Name": "Constellation 1 1528",
        "Satellite Number": 1528,
        "Semi-Major Axis(m)": 7083131.272910544,
        "Time(s)": 36
    },
    {
        "Altitude(m)": 702702.799236358,
        "Argument of Periapsis(deg)": 0.002218076231080008,
        "Eccentricity": 0.0,
        "Inclination(deg)": 45.0,
        "Latitude(deg)": 9.928816161321993,
        "Longitude(deg)": 54.84751129790546,
        "Mean Anomaly(deg)": -194.11765781075374,
        "RAAN(deg)": 344.99790620087396,
        "Satellite Name": "Constellation 1 1528",
        "Satellite Number": 1528,
        "Semi-Major Axis(m)": 7083131.272910544,
        "Time(s)": 37
    }
]